ID,Address,Suburb,Price,Type,Date,Rooms,Bathroom,Car,LandSize,Age,Latitude,Longitude,train_station_id,distance_to_train_station,travel_min_to_CBD,over_priced?,crime_A_average,crime_B_average,crime_C_average,closest_primary_school,distance_to_closest_primary,primary_school_ranking,closest_secondary_school,distance_to_closest_secondary,secondary_school_ranking
ID543066521,11/8 Grandview Gr,PRAHRAN,399000.0,u,1/07/2017,1,1.0,0.0,0.0,9.0,-37.85279,145.00811000000004,19946,556.900436307437,18.214285714285715,0,705.3333333333334,5479.666666666667,335.0,Our Lady of Lourdes School,124.0619766899198,67,The King David School,640.3991726622311,27
ID892636919,41 Helston St,BALWYN NORTH,1800000.0,h,10/12/2016,4,2.0,4.0,587.0,59.0,-37.7841,145.0953,19896,4034.0830717411336,28.785714285714285,0,925.6666666666666,4701.333333333333,308.6666666666667,Boroondara Park Primary School,881.7950295640372,192,Marcellin College,1519.77500310465,169
ID295570781,19 Poulter St,ASHBURTON,1650000.0,h,28/08/2016,3,1.0,1.0,697.0,72.0,-37.8636,145.0903,19848,807.8059622166824,30.666666666666668,0,1654.0,9119.666666666666,550.0,Ashburton Primary School,607.2494024937165,106,Ashwood High School,1149.5600495301394,241
ID360998950,12/352 Canterbury Rd,ST KILDA,390000.0,u,11/02/2017,2,1.0,1.0,0.0,19.0,-37.859,144.9767,19957,1387.1432358693955,15.5,1,1412.0,6364.0,699.3333333333334,St Kilda Park Primary School,137.49993466900622,73,Wesley College,1229.062160367399,98
ID667755205,20 Gordon St,CLIFTON HILL,1430000.0,h,25/02/2017,2,1.0,0.0,151.0,109.0,-37.7912,144.9963,19974,293.50165015822483,15.142857142857142,0,1097.6666666666667,5916.0,553.3333333333334,Clifton Hill Primary School,632.7487447149202,144,Fitzroy High School,1045.3179334582735,248
ID638716850,3/49 Stenhouse Av,BROOKLYN,515000.0,u,8/07/2017,2,1.0,2.0,159.0,7.0,-37.82073,144.8447,20022,2879.491919325299,21.4,0,444.6666666666667,981.3333333333334,239.66666666666666,Annunciation School,288.02003107196055,not ranked,Emmanuel College,1229.4848309377646,180
ID716124617,54 Devon Dr,DONCASTER EAST,1120000.0,h,29/07/2017,3,1.0,1.0,725.0,54.0,-37.79509,145.15591,19898,2828.7262842130003,30.307692307692307,0,3327.0,11071.666666666666,1069.3333333333333,Beverley Hills Primary School,368.834292560241,7,East Doncaster Secondary College,1461.6713416225832,105
ID316623802,1/12 Charles St,ST KILDA,730000.0,u,27/05/2017,2,1.0,0.0,284.0,89.0,-37.86309,144.98301999999995,19957,1114.166560053336,15.5,0,1412.0,6364.0,699.3333333333334,St Kilda Park Primary School,719.3037885916156,73,Cheder Levi Yitzchok Inc,830.2359829155316,not ranked
ID434973386,16 Oxford St,SOUTH YARRA,1510000.0,h,3/12/2016,3,5.0,0.0,241.0,8.0,-37.8407,144.9962,19959,421.64492449860114,12.543859649122806,0,1100.6666666666667,3636.3333333333335,457.3333333333333,South Yarra Primary School,932.9998961334848,44,Melbourne High School,437.89145791059457,2
ID266496844,78 Dickens St,ELWOOD,2200000.0,h,27/06/2016,4,3.0,2.0,348.0,119.0,-37.8748,144.9778,19956,1501.960756226215,17.5,0,1566.6666666666667,8895.333333333334,491.0,Yesodei HaTorah College,529.8360979534906,277,Yesodei HaTorah College,529.8360979534906,38
ID383769198,17 Taniyha Pl,SUNSHINE NORTH,1000000.0,h,28/05/2016,5,2.0,1.0,786.0,20.0,-37.7743,144.8425,20004,1609.7053067987495,26.375,0,1363.6666666666667,6287.666666666667,564.3333333333334,Sunshine North Primary School,532.0878006455185,not ranked,Braybrook College,624.8500403631309,139
ID391234515,250 Oriel Rd,HEIDELBERG WEST,808000.0,h,11/02/2017,3,1.0,0.0,649.0,49.0,-37.7386,145.0441,19936,1997.7736098749692,31.75,0,1173.6666666666667,8523.666666666666,974.6666666666666,East Preston Islamic College,865.3784671529272,not ranked,East Preston Islamic College,865.3784671529272,491
ID627058019,3/165 Mountain View Pde,ROSANNA,990000.0,t,30/07/2016,3,2.0,2.0,276.0,69.0,-37.7336,145.0615,19983,1079.9300259654303,34.75,0,824.6666666666666,1890.3333333333333,159.33333333333334,Rosanna Primary School,234.7223440262554,367,Charles La Trobe P-12 College,573.6302077075767,465
ID874426319,118 Rossmoyne St,THORNBURY,1400000.0,h,27/05/2017,4,2.0,0.0,364.0,99.0,-37.75807,145.00782,20014,880.5692474673685,25.3,0,2532.3333333333335,5455.0,713.0,Wales Street Primary School,393.1713159335476,175,St John's College Preston,1445.691100438982,not ranked
ID582570525,5 Virginia St,PASCOE VALE,600000.0,h,23/04/2016,3,1.0,4.0,557.0,64.0,-37.7156,144.94299999999996,19962,1548.8295927409504,37.0,0,659.0,5219.333333333333,338.3333333333333,Westbreen Primary School,666.9967679428321,321,Pascoe Vale Girls Secondary College,695.7575090432127,371
ID749389069,2/2 Bellevue Tce,PASCOE VALE,495000.0,u,7/05/2016,2,1.0,2.0,205.0,29.0,-37.7317,144.9313,20034,292.81531718164996,31.0,0,659.0,5219.333333333333,338.3333333333333,Pascoe Vale Primary School,526.9337569674121,414,Strathmore Secondary College,713.8815612531394,133
ID729281273,301/437 North Rd,ORMOND,485000.0,u,3/06/2017,2,1.0,1.0,0.0,7.0,-37.90335,145.03718,19941,214.29236021443214,32.15384615384615,0,298.0,735.0,154.0,St Kevin's School,184.00365516004712,130,Divrei Emineh,186.4963249776178,not ranked
ID196767051,86/682 Nicholson St,FITZROY NORTH,650000.0,u,15/07/2017,2,1.0,1.0,0.0,6.0,-37.78334,144.97782,20019,1283.4102572582665,18.3,0,2047.6666666666667,9171.0,742.3333333333334,Fitzroy North Primary School,587.3706996806394,103,Fitzroy High School,867.3162653301233,248
ID541378182,214 Were St,BRIGHTON EAST,2310000.0,h,28/05/2016,4,2.0,2.0,757.0,89.0,-37.9266,145.0088,19949,1420.5554235133088,31.5,0,2744.3333333333335,10289.666666666666,780.0,St Leonard's College,251.16540407490047,33,St Leonard's College,251.16540407490047,43
ID476466404,15 Kookaburra St,ALTONA,900000.0,h,28/05/2016,3,1.0,4.0,697.0,5.0,-37.871,144.8075,19925,836.3743927300654,28.5,0,2489.6666666666665,11817.333333333334,1268.6666666666667,Altona Primary School,1388.6187936434533,213,Mount St Joseph Girls' College,871.1175951269333,119
ID423792919,1 Nisbett St,RESERVOIR,425000.0,t,18/06/2016,2,1.0,1.0,145.0,34.0,-37.7284,145.0361,20010,2865.324338751493,34.2,0,824.6666666666666,1890.3333333333333,159.33333333333334,East Preston Islamic College,618.3586220122342,not ranked,East Preston Islamic College,618.3586220122342,491
ID147275160,159 Warrigal Rd,HUGHESDALE,900000.0,h,13/08/2016,4,1.0,1.0,369.0,49.0,-37.9054,145.0857,19917,604.746874137654,29.35483870967742,0,555.6666666666666,1129.0,160.66666666666666,Sacred Heart School,410.94425151906773,66,Sacred Heart Girls' College,361.9003666748372,93
ID201647781,5 Boyd St,DONCASTER,1403000.0,h,3/12/2016,3,1.0,4.0,727.0,49.0,-37.7942,145.1218,20042,2785.5291631203763,25.775,0,1566.6666666666667,8895.333333333334,491.0,Box Hill North Primary School,745.7416212127885,not ranked,Koonung Secondary College,964.4171881866481,94
ID809483143,16 Scott St,KEW,1630000.0,h,23/09/2017,2,1.0,0.0,284.0,99.0,-37.81202,145.04217,19904,1166.1259880443017,15.666666666666666,0,288.0,712.0,75.66666666666667,Ruyton Girls' School,281.6676225682468,54,Ruyton Girls' School,281.6676225682468,5
ID725812953,146 East St,HADFIELD,741000.0,h,22/07/2017,4,1.0,2.0,652.0,59.0,-37.70542,144.95127,19961,852.7538997648837,39.0,0,1841.6666666666667,9184.666666666666,533.3333333333334,St Thomas More's School,595.0261041060401,431,Darul Ulum College of Victoria,1798.7756962798512,261
ID585006575,26 Octantis St,DONCASTER EAST,1390000.0,h,8/07/2017,4,3.0,2.0,664.0,41.0,-37.77813,145.16558,19899,4798.4088822992435,31.666666666666668,0,3327.0,11071.666666666666,1069.3333333333333,Milgate Primary School,973.2406265944577,209,East Doncaster Secondary College,761.4191156859451,105
ID984394372,49 Tennyson St,MALVERN EAST,1800000.0,h,19/08/2017,3,2.0,1.0,460.0,109.0,-37.87241,145.05103,22248,935.1280840815396,19.5,0,717.3333333333334,1763.0,318.6666666666667,St Mary's School,179.49819397457415,159,Sacre Coeur,1187.2621058400493,16
ID230414306,2/8 Hughes St,YARRAVILLE,630000.0,h,8/10/2016,2,1.0,1.0,148.0,16.0,-37.822,144.89,19996,684.5756004498251,11.357142857142858,0,703.6666666666666,1502.0,135.66666666666666,Yarraville West Primary School,903.1999764269456,105,Gilmore College For Girls,2585.343727079775,387
ID779567050,5/171 Hotham St,BALACLAVA,490000.0,u,29/04/2017,2,1.0,0.0,601.0,59.0,-37.8757,144.998,19955,243.90131721629893,19.5,0,1672.6666666666667,10063.666666666666,646.3333333333334,Ripponlea Primary School,631.6296725399933,247,Caulfield Grammar School,633.2768951918882,24
ID439413729,27 Morgan St,CARNEGIE,1900000.0,h,19/11/2016,5,3.0,1.0,564.0,89.0,-37.8957,145.0487,19942,875.7653808123519,29.23076923076923,0,3703.6666666666665,18944.0,2039.3333333333333,Glen Huntly Primary School,305.31737231225395,290,Kilvington Grammar School,782.8846951938733,37
ID541153821,16/43 Arndt Rd,PASCOE VALE,541000.0,u,22/07/2017,2,1.0,1.0,133.0,9.0,-37.72136,144.92932,20033,784.842222770329,34.0,0,705.3333333333334,5479.666666666667,335.0,St Francis de Sales School,777.6969588597574,not ranked,Pascoe Vale Girls Secondary College,688.899922021965,371
ID392120274,4/26 Acheron Av,RESERVOIR,495000.0,u,22/07/2017,2,1.0,1.0,134.0,6.0,-37.7216,145.0178,20010,1086.5328714420966,34.2,0,885.0,1901.0,227.66666666666666,Reservoir East Primary School,398.8450004806216,not ranked,Reservoir High School,1056.691770556803,346
ID495983893,49 Kent Rd,PASCOE VALE,860000.0,h,24/06/2017,2,1.0,4.0,609.0,12.0,-37.72091,144.94601,19963,1347.5080981855012,36.0,0,705.3333333333334,5479.666666666667,335.0,Pascoe Vale North Primary School,220.910634530612,not ranked,Pascoe Vale Girls Secondary College,997.6697155608672,371
ID614028912,3/51 Coorigil Rd,CARNEGIE,1042000.0,u,27/05/2017,3,2.0,2.0,0.0,11.0,-37.89622,145.06032,19919,912.9128330080205,25.375,0,3767.6666666666665,18925.0,2042.3333333333333,St Patrick's School,755.6800159992938,346,Kilvington Grammar School,1717.828809636503,37
